[
    {
        "Altitude(m)": 555994.4012281646,
        "Argument of Periapsis(deg)": 0.006622991110713501,
        "Eccentricity": 0.0,
        "Inclination(deg)": 53.0,
        "Latitude(deg)": -9.625467896430226,
        "Longitude(deg)": -118.47105382850832,
        "Mean Anomaly(deg)": 191.90979286757752,
        "RAAN(deg)": 154.99014336852804,
        "Satellite Name": "Starlink Shell 1 693",
        "Satellite Number": 693,
        "Semi-Major Axis(m)": 6931778.249405717,
        "Time(s)": 190
    },
    {
        "Altitude(m)": 556111.5075961081,
        "Argument of Periapsis(deg)": 0.0069715695902247375,
        "Eccentricity": 0.0,
        "Inclination(deg)": 53.0,
        "Latitude(deg)": -10.124727660751311,
        "Longitude(deg)": -118.12452877908997,
        "Mean Anomaly(deg)": 192.53662407113433,
        "RAAN(deg)": 154.98962459845055,
        "Satellite Name": "Starlink Shell 1 693",
        "Satellite Number": 693,
        "Semi-Major Axis(m)": 6931778.249405717,
        "Time(s)": 200
    },
    {
        "Altitude(m)": 556230.9800393339,
        "Argument of Periapsis(deg)": 0.007320148069735974,
        "Eccentricity": 0.0,
        "Inclination(deg)": 53.0,
        "Latitude(deg)": -10.623500951556446,
        "Longitude(deg)": -117.77681434669596,
        "Mean Anomaly(deg)": 193.16345527469105,
        "RAAN(deg)": 154.98910582837308,
        "Satellite Name": "Starlink Shell 1 693",
        "Satellite Number": 693,
        "Semi-Major Axis(m)": 6931778.249405717,
        "Time(s)": 210
    },
    {
        "Altitude(m)": 556352.783817825,
        "Argument of Periapsis(deg)": 0.007668726549247212,
        "Eccentricity": 0.0,
        "Inclination(deg)": 53.0,
        "Latitude(deg)": -11.121762381153584,
        "Longitude(deg)": -117.42784769817477,
        "Mean Anomaly(deg)": 193.7902864782477,
        "RAAN(deg)": 154.9885870582956,
        "Satellite Name": "Starlink Shell 1 693",
        "Satellite Number": 693,
        "Semi-Major Axis(m)": 6931778.249405717,
        "Time(s)": 220
    },
    {
        "Altitude(m)": 556476.8830104773,
        "Argument of Periapsis(deg)": 0.00801730502875845,
        "Eccentricity": 0.0,
        "Inclination(deg)": 53.0,
        "Latitude(deg)": -11.619486301204711,
        "Longitude(deg)": -117.07756546318112,
        "Mean Anomaly(deg)": 194.41711768180446,
        "RAAN(deg)": 154.98806828821813,
        "Satellite Name": "Starlink Shell 1 693",
        "Satellite Number": 693,
        "Semi-Major Axis(m)": 6931778.249405717,
        "Time(s)": 230
    },
    {
        "Altitude(m)": 556603.2405302901,
        "Argument of Periapsis(deg)": 0.008365883508269684,
        "Eccentricity": 0.0,
        "Inclination(deg)": 53.0,
        "Latitude(deg)": -12.116646788418734,
        "Longitude(deg)": -116.72590320343903,
        "Mean Anomaly(deg)": 195.04394888536112,
        "RAAN(deg)": 154.98754951814067,
        "Satellite Name": "Starlink Shell 1 693",
        "Satellite Number": 693,
        "Semi-Major Axis(m)": 6931778.249405717,
        "Time(s)": 240
    },
    {
        "Altitude(m)": 556731.8181400978,
        "Argument of Periapsis(deg)": 0.008714461987780921,
        "Eccentricity": 0.0,
        "Inclination(deg)": 53.0,
        "Latitude(deg)": -12.613217629988606,
        "Longitude(deg)": -116.37279639481032,
        "Mean Anomaly(deg)": 195.6707800889179,
        "RAAN(deg)": 154.9870307480632,
        "Satellite Name": "Starlink Shell 1 693",
        "Satellite Number": 693,
        "Semi-Major Axis(m)": 6931778.249405717,
        "Time(s)": 250
    },
    {
        "Altitude(m)": 556862.5764689008,
        "Argument of Periapsis(deg)": 0.009063040467292158,
        "Eccentricity": 0.0,
        "Inclination(deg)": 53.0,
        "Latitude(deg)": -13.109172308761424,
        "Longitude(deg)": -116.01817989642909,
        "Mean Anomaly(deg)": 196.2976112924746,
        "RAAN(deg)": 154.9865119779857,
        "Satellite Name": "Starlink Shell 1 693",
        "Satellite Number": 693,
        "Semi-Major Axis(m)": 6931778.249405717,
        "Time(s)": 260
    },
    {
        "Altitude(m)": 556995.4750287352,
        "Argument of Periapsis(deg)": 0.009411618946803396,
        "Eccentricity": 0.0,
        "Inclination(deg)": 53.0,
        "Latitude(deg)": -13.604483988129791,
        "Longitude(deg)": -115.6619874197841,
        "Mean Anomaly(deg)": 196.9244424960313,
        "RAAN(deg)": 154.98599320790825,
        "Satellite Name": "Starlink Shell 1 693",
        "Satellite Number": 693,
        "Semi-Major Axis(m)": 6931778.249405717,
        "Time(s)": 270
    },
    {
        "Altitude(m)": 557130.4722321068,
        "Argument of Periapsis(deg)": 0.009760197426314633,
        "Eccentricity": 0.0,
        "Inclination(deg)": 53.0,
        "Latitude(deg)": -14.099125496628355,
        "Longitude(deg)": -115.30415251063559,
        "Mean Anomaly(deg)": 197.55127369958802,
        "RAAN(deg)": 154.98547443783076,
        "Satellite Name": "Starlink Shell 1 693",
        "Satellite Number": 693,
        "Semi-Major Axis(m)": 6931778.249405717,
        "Time(s)": 280
    },
    {
        "Altitude(m)": 557267.525409966,
        "Argument of Periapsis(deg)": 0.01010877590582587,
        "Eccentricity": 0.0,
        "Inclination(deg)": 53.0,
        "Latitude(deg)": -14.593069312228065,
        "Longitude(deg)": -114.9446080180303,
        "Mean Anomaly(deg)": 198.1781049031447,
        "RAAN(deg)": 154.98495566775327,
        "Satellite Name": "Starlink Shell 1 693",
        "Satellite Number": 693,
        "Semi-Major Axis(m)": 6931778.249405717,
        "Time(s)": 290
    },
    {
        "Altitude(m)": 557406.5908302077,
        "Argument of Periapsis(deg)": 0.010457354385337106,
        "Eccentricity": 0.0,
        "Inclination(deg)": 53.0,
        "Latitude(deg)": -15.08628754631323,
        "Longitude(deg)": -114.58328556330453,
        "Mean Anomaly(deg)": 198.80493610670143,
        "RAAN(deg)": 154.98443689767583,
        "Satellite Name": "Starlink Shell 1 693",
        "Satellite Number": 693,
        "Semi-Major Axis(m)": 6931778.249405717,
        "Time(s)": 300
    },
    {
        "Altitude(m)": 557547.6237166979,
        "Argument of Periapsis(deg)": 0.010805932864848343,
        "Eccentricity": 0.0,
        "Inclination(deg)": 53.0,
        "Latitude(deg)": -15.578751927327673,
        "Longitude(deg)": -114.22011652196701,
        "Mean Anomaly(deg)": 199.43176731025818,
        "RAAN(deg)": 154.98391812759837,
        "Satellite Name": "Starlink Shell 1 693",
        "Satellite Number": 693,
        "Semi-Major Axis(m)": 6931778.249405717,
        "Time(s)": 310
    },
    {
        "Altitude(m)": 557690.5782688074,
        "Argument of Periapsis(deg)": 0.01115451134435958,
        "Eccentricity": 0.0,
        "Inclination(deg)": 53.0,
        "Latitude(deg)": -16.07043378408074,
        "Longitude(deg)": -113.85503149273333,
        "Mean Anomaly(deg)": 200.05859851381481,
        "RAAN(deg)": 154.98339935752088,
        "Satellite Name": "Starlink Shell 1 693",
        "Satellite Number": 693,
        "Semi-Major Axis(m)": 6931778.249405717,
        "Time(s)": 320
    },
    {
        "Altitude(m)": 557835.4076814578,
        "Argument of Periapsis(deg)": 0.011503089823870818,
        "Eccentricity": 0.0,
        "Inclination(deg)": 53.0,
        "Latitude(deg)": -16.561304028699848,
        "Longitude(deg)": -113.48795976660857,
        "Mean Anomaly(deg)": 200.6854297173716,
        "RAAN(deg)": 154.9828805874434,
        "Satellite Name": "Starlink Shell 1 693",
        "Satellite Number": 693,
        "Semi-Major Axis(m)": 6931778.249405717,
        "Time(s)": 330
    },
    {
        "Altitude(m)": 557982.0641656575,
        "Argument of Periapsis(deg)": 0.011851668303382053,
        "Eccentricity": 0.0,
        "Inclination(deg)": 53.0,
        "Latitude(deg)": -17.051333139214535,
        "Longitude(deg)": -113.11883030891877,
        "Mean Anomaly(deg)": 201.3122609209283,
        "RAAN(deg)": 154.98236181736593,
        "Satellite Name": "Starlink Shell 1 693",
        "Satellite Number": 693,
        "Semi-Major Axis(m)": 6931778.249405717,
        "Time(s)": 340
    },
    {
        "Altitude(m)": 558130.4989694919,
        "Argument of Periapsis(deg)": 0.012200246782893292,
        "Eccentricity": 0.0,
        "Inclination(deg)": 53.0,
        "Latitude(deg)": -17.540491141764466,
        "Longitude(deg)": -112.74757122857118,
        "Mean Anomaly(deg)": 201.939092124485,
        "RAAN(deg)": 154.98184304728844,
        "Satellite Name": "Starlink Shell 1 693",
        "Satellite Number": 693,
        "Semi-Major Axis(m)": 6931778.249405717,
        "Time(s)": 350
    },
    {
        "Altitude(m)": 558280.662399631,
        "Argument of Periapsis(deg)": 0.012548825262404526,
        "Eccentricity": 0.0,
        "Inclination(deg)": 53.0,
        "Latitude(deg)": -18.028747592417144,
        "Longitude(deg)": -112.3741092474496,
        "Mean Anomaly(deg)": 202.56592332804178,
        "RAAN(deg)": 154.981324277211,
        "Satellite Name": "Starlink Shell 1 693",
        "Satellite Number": 693,
        "Semi-Major Axis(m)": 6931778.249405717,
        "Time(s)": 360
    },
    {
        "Altitude(m)": 558432.5038432456,
        "Argument of Periapsis(deg)": 0.012897403741915765,
        "Eccentricity": 0.0,
        "Inclination(deg)": 53.0,
        "Latitude(deg)": -18.516071558581565,
        "Longitude(deg)": -111.99837068285615,
        "Mean Anomaly(deg)": 203.1927545315984,
        "RAAN(deg)": 154.9808055071335,
        "Satellite Name": "Starlink Shell 1 693",
        "Satellite Number": 693,
        "Semi-Major Axis(m)": 6931778.249405717,
        "Time(s)": 370
    }
]